[{"name":"Appling","id":"1","locations":[{"name":"Appling County Board of Registration","address1":"69 Tippins Street, Suite 205","address2":"912-367-8113","city":"Baxley","zip":"31513"}]},{"name":"Atkinson","id":"2","locations":[{"name":"Atkinson County Voting Precinct","address1":"636 Austin Avenue East","city":"Pearson","zip":"31642"}]},{"name":"Bacon","id":"3","locations":[{"name":"","city":"Alma","zip":"31510"}]},{"name":"Baker","id":"4","locations":[{"name":"Baker County Courthouse","address1":"167 Baker Place,Baker Co. Elections Office","city":"Newton","zip":"39870"}]},{"name":"Baldwin","id":"5","locations":[{"name":"","address1":"121 N Wilkinson St","city":"Milledgeville","zip":"31061"}]},{"name":"Banks","id":"6","locations":[{"name":"Banks County Registrar's Office","address1":"226 Candler Street","city":"Homer","zip":""}]},{"name":"Barrow","id":"7","locations":[{"name":"Barrow County Elections Office","address1":"233 East Broad Street","address2":"Ground Floor","city":"Winder","zip":"30680"}]},{"name":"Bartow","id":"8","locations":[{"name":"Bartow County Voter Registration Office","address1":"1300 Joe Frank Harris Pkwy","city":"Cartersville","zip":"30120"},{"name":"Cartersville Civic Center","address1":"435 West Main Street","city":"Cartersville","zip":""}]},{"name":"Ben Hill","id":"9","locations":[{"name":"Ben Hill Elections Office","address1":"115 W Pine Street ","city":"Fitzgerald","zip":"31750"}]},{"name":"Berrien","id":"10","locations":[{"name":"Berrien County Board of Elections and Registration","address1":"201 N. Davis Street","city":"Nashville","zip":"31639"}]},{"name":"Bibb","id":"11","locations":[{"name":"Macon-Bibb County Board of Elections","address1":"2445 Pio Nono Avenue","city":"Macon","zip":"31206"}]},{"name":"Bleckley","id":"12","locations":[{"name":"Voter Registrar's Office","address1":"112 North Second Street, 2nd floor","city":"Cochran","zip":"31014"}]},{"name":"Brantley","id":"13","locations":[{"name":"Board of Elections and Registration Office","address1":"10305 N. Main St.","address2":"Suite 400","city":"Nahunta","zip":"31553"}]},{"name":"Brooks","id":"14","locations":[{"name":"elections office","address1":"610 S Highland Rd","city":"Quitman","zip":"31643"}]},{"name":"Bryan","id":"15","locations":[{"name":"Bryan County Administration Bldg","address1":"66 Capt. Matthew Freeman Dr.","city":"Richmond Hill","zip":"31324"},{"name":"Bryan County Courthouse","address1":"Commissioners Meeting Room","address2":"42 N. Courthouse St","city":"Pembroke","zip":"31321"}]},{"name":"Bulloch","id":"16","locations":[{"name":"Bulloch County Annex","address1":"113 North Main Street, Ste 201","city":"Statesboro","zip":"30458"}]},{"name":"Burke","id":"17","locations":[{"name":"Burke County Courthouse","address1":"602 North Liberty Street, Room 104","city":"Waynesboro","zip":"30830-1417"}]},{"name":"Butts","id":"18","locations":[{"name":"Butts County Board of Elections","address1":"625 West 3rd Street, Suite 5","city":"Jackson","zip":"30233"}]},{"name":"Calhoun","id":"19","locations":[{"name":"Calhoun Co Courthouse","address1":"Voter Registration Office","address2":"31 Court St. Suite E","city":"Morgan","zip":"39866"}]},{"name":"Camden","id":"20","locations":[{"name":"Voter Registration","address1":"200 E 4th St","city":"Woodbine","zip":"31569"},{"name":"Dept. of Motor Vehicles","address1":"333 S Ashley St","city":"Kingsland","zip":"31548"},{"name":"Salvation Army Resource Center","address1":"1915 Osborne St","city":"Saint Marys","zip":"31558"}]},{"name":"Candler","id":"21","locations":[{"name":"Jack Strickland Building","address1":"621 West Pine Street ","city":"Metter","zip":"30439"}]},{"name":"Carroll","id":"22","locations":[{"name":"Carroll County Board of Elections and Registration, Lower Level","address1":"423 College Street","city":"Carrollton","zip":"30117"},{"name":"Powell Park Arts Center","address1":"424 Leslie Dr","city":"Villa Rica","zip":"30180"}]},{"name":"Catoosa","id":"23","locations":[{"name":"Catoosa Hall","address1":"7658 Nashville Street","city":"Ringgold","zip":""},{"name":"Westside Voting Precinct","address1":"3319 Lakeview Dr","city":"Rossville","zip":"30741"}]},{"name":"Charlton","id":"24","locations":[{"name":"Charlton County Board of Elections & Registration","address1":"Courthouse","address2":"1520 Third St, Suite C","city":"Folkston","zip":"31537"},{"name":"Saint George Community Center","address1":"13063 Florida Ave","city":"Saint George","zip":"31562"}]},{"name":"Chatham","id":"25","locations":[{"name":"Voter Registration Office","address1":"1117 Eisenhower Drive, Suite E","city":"Savannah","zip":"31401"},{"name":"Civic Center","address1":"301 W Oglethorpe Ave","city":"Savannah","zip":"31401"},{"name":"Islands Library","address1":"50 Johnny Mercer Blvd","city":"Savannah","zip":"31410"},{"name":"Mosquito Control","address1":"65 Billy B Hair Dr","city":"Savannah","zip":"31408"},{"name":"Southwest Library","address1":"14097 Abercorn St","city":"Savannah","zip":"31419"}]},{"name":"Chattahoochee","id":"26","locations":[{"name":"Unified Gov't Offices of Cusseta-Chattahoochee Co ","address1":"215 McNaughton St.","city":"Cusseta","zip":""}]},{"name":"Chattooga","id":"27","locations":[{"name":"Chattooga County Registrar Office","address1":"10017 Commerce Street","city":"Summerville","zip":"30747"}]},{"name":"Cherokee","id":"28","locations":[{"name":"Cherokee County Elections & Registration","address1":"400 East Main Street","city":"Canton","zip":"30114"},{"name":"Ball Ground Public Library","address1":"435 Old Canton Road","city":"Ball Ground","zip":"30107"},{"name":"Hickory Flat Public Library","address1":"2740 East Cherokee Drive","city":"Canton","zip":"30115"},{"name":"Rose Creek Public Library","address1":"4476 Towne Lake Parkway","city":"Woodstock","zip":"30189"},{"name":"Woodstock Public Library","address1":"7735 Main Street","city":"Woodstock","zip":"30188"}]},{"name":"Clarke","id":"29","locations":[{"name":"Athens-Clarke County Board of Elections","address1":"155 East Washington Street","city":"Athens","zip":"30601"}]},{"name":"Clay","id":"30","locations":[{"name":"Clay County Courthouse","address1":"210 South Washington Street","city":"Fort Gaines","zip":""}]},{"name":"Clayton","id":"31","locations":[{"name":"Clayton County Elections and Registration","address1":"121 S. McDonough Street","city":"Jonesboro","zip":"30236"},{"name":"Carl Rhodenizer Recreation Center ","address1":"3499 Rex Road","city":"Rex","zip":"30273"},{"name":"Lee Headquarters Library","address1":"865 Battle Creek Road","city":"Jonesboro","zip":"30236"},{"name":"Morrow Municipal Complex","address1":"Community Room","address2":"1500 Morrow Road","city":"Morrow","zip":"30260"},{"name":"South Clayton Recreation Center","address1":"1837 McDonough Road","city":"Hampton","zip":"30228"},{"name":"Virginia Burton Gray Recreation Center ","address1":"1475 East Fayetteville Road","city":"Riverdale","zip":"30274"}]},{"name":"Clinch","id":"32","locations":[{"name":"","city":"Homerville","zip":"31634"}]},{"name":"Cobb","id":"33","locations":[{"name":"CENTRAL 2: Switzer Central Library","address1":"266 Roswell St.","city":"Marietta","zip":"30060-2005"},{"name":"CENTRAL 3: Senior Wellness Center ","address1":"Powder Springs Station","address2":"1150 Powder Springs St.","city":"Marietta","zip":"30064-5287"},{"name":"MAIN OFFICE","address1":"736 Whitlock Ave.","city":"Marietta","zip":"30064"},{"name":"EAST, East Cobb Government Svcs. Center","address1":"4400 Lower Roswell Rd.","city":"Marietta","zip":"30068-4233"},{"name":"NORTH, NorthStar Church","address1":"3413 Blue Springs Rd., NW","city":"Kennesaw","zip":"30144-1082"},{"name":"SOUTH, South Cobb Community Center","address1":"620 Lions Club Dr.","city":"Mableton","zip":"30126-2438"},{"name":"WEST, Boots Ward Recreation Center","address1":"(Lost Mountain Park)","address2":"4845 Dallas Hwy.","city":"Powder Springs","zip":"30127-4486"}]},{"name":"Coffee","id":"34","locations":[{"name":"Elections & Registation","address1":"224 West Ashley Street","city":"Douglas","zip":"31533"}]},{"name":"Colquitt","id":"35","locations":[{"name":"Courthouse Annex","address1":"101 East Central Avenue, Room 221","city":"Moultrie","zip":"31768"}]},{"name":"Columbia","id":"36","locations":[{"name":"Columbia County Board of Elections","address1":"500 Faircloth Drive, Building E","city":"Evans","zip":"30809"},{"name":"Patriots Park","address1":"5445 Columbia Road","city":"Grovetown","zip":"30813"},{"name":"Stevens Creek Community Church","address1":"600 Stevens Creek Road","city":"Augusta","zip":"30907"}]},{"name":"Cook","id":"37","locations":[{"name":"Cook County Administration Building","address1":"1200 S Hutchinson Ave","city":"Adel","zip":"31620"}]},{"name":"Coweta","id":"38","locations":[{"name":"Coweta County Voter Registration Office","address1":"22 East Broad Street","address2":"Room 128","city":"Newnan","zip":"30263"},{"name":"East Side Central Community Center","address1":"65 Literary Lane","city":"Newnan","zip":"30265"}]},{"name":"Crawford","id":"39","locations":[{"name":"Development Center","address1":"1011 US Highway 341 North, Room 9","city":"Roberta","zip":"31078"}]},{"name":"Crisp","id":"40","locations":[{"name":"Government Center","address1":"210 S 7th St. Room 103","city":"Cordele","zip":"31015"},{"name":"Government Center Annex (Ag Bldg)","address1":"110 W 13th Ave.","city":"Cordele","zip":"31015"}]},{"name":"Dade","id":"41","locations":[{"name":"Administration Building","address1":"71 Case Avenue","city":"Trenton","zip":"30752"}]},{"name":"Dawson","id":"42","locations":[{"name":"Dawson County Board of Elections and Registration","address1":"96 Academy Avenue","city":"Dawsonville","zip":"30534"}]},{"name":"Decatur","id":"43","locations":[{"name":"Courthouse Annex","address1":"122 West Water Street","city":"Bainbridge","zip":"39817"},{"name":"Fairgrounds, Chamber 1","address1":"1211 Vada Road","city":"Bainbridge","zip":"39817"}]},{"name":"DeKalb","id":"44","locations":[{"name":"Memorial Drive Complex, Suite 300","address1":"4380 Memorial Drive","city":"Decatur","zip":"30032"},{"name":"The Gallery at South DeKalb Mall","address1":"2801 Candler Road","city":"Decatur","zip":"30034"},{"name":"Tucker Recreation Center","address1":"4898 LaVista Road","city":"Tucker","zip":"30084"},{"name":"Berean Christian Church Community Center","address1":"2440 Young Road","city":"Stone Mountain","zip":"30088"},{"name":"Brookhaven City Hall","address1":"4362 Peachtree Road NE","city":"Brookhaven","zip":"30319"},{"name":"Chamblee Civic Center","address1":"3540 Broad Street","city":"Chamblee","zip":"30341"},{"name":"Clark Harrison Center - Decatur","address1":"330 West Ponce de Leon Ave., Room A","city":"Decatur","zip":"30030"},{"name":"Dunwoody Library","address1":"5339 Chamblee Dunwoody Road","city":"Dunwoody","zip":"30338"},{"name":"Stonecrest Library","address1":"3123 Klondike Road","city":"Lithonia","zip":"30038"}]},{"name":"Dodge","id":"45","locations":[{"name":"Dodge County Registrar Office","address1":"5401 Anson Avenue","address2":"Courthouse Circle","city":"Eastman","zip":"31023"}]},{"name":"Dooly","id":"46","locations":[{"name":"Vienna Voting Precinct","address1":"402 Hawkinsville Road","city":"Vienna","zip":"31092"}]},{"name":"Dougherty","id":"47","locations":[{"name":"","city":"Albany","zip":""}]},{"name":"Douglas","id":"48","locations":[{"name":"Board of Elections and Registration","address1":"8700 Hospital Drive","city":"Douglasville","zip":"30134"},{"name":"Boundary Waters Aquatic Center","address1":"5000 Ga. Hwy 92","city":"Douglasville","zip":"30135"},{"name":"Deer Lick Park Recreation Center","address1":"2105 Mack Road","city":"Douglasville","zip":"30135"},{"name":"Dog River Library","address1":"6100 Ga. Hwy 5","city":"Douglasville","zip":"30135"},{"name":"Old Douglas County Courthouse","address1":"6745 Church Street","city":"Douglasville","zip":"30134"}]},{"name":"Early","id":"49","locations":[{"name":"Elections and Registration Office","address1":"17 McDonald Ave.","city":"Blakely","zip":"39823"}]},{"name":"Echols","id":"50","locations":[{"name":"County Courthouse","address1":"Grand Jury Room","address2":"110 hwy 94 east","city":"Statenville","zip":"31648"}]},{"name":"Effingham","id":"51","locations":[{"name":"Board of Elections and Registration","address1":"284 Highway 119 South","city":"Springfield","zip":"31329"}]},{"name":"Elbert","id":"52","locations":[{"name":"Registrar's Office","address1":"45 Forest Avenue","city":"Elberton","zip":"30635"}]},{"name":"Emanuel","id":"53","locations":[{"name":"Emanuel County Office of Elections & Registration","address1":"105 South Main Street","city":"Swainsboro","zip":"30401"}]},{"name":"Evans","id":"54","locations":[{"name":"Evan's County Registrar's Office","address1":"Courthouse Annex","address2":"201 Freeman Street","city":"Claxton","zip":"30417"}]},{"name":"Fannin","id":"55","locations":[{"name":"Fannin County Board of Elections and Registration","address1":"400 West Main Street, Suite 301","city":"Blue Ridge","zip":"30513"}]},{"name":"Fayette","id":"56","locations":[{"name":"Fayette County Elections Office","address1":"140 Stonewall Avenue West, Suite 209","city":"Fayetteville","zip":"30214"}]},{"name":"Floyd","id":"57","locations":[{"name":"Elections and Registration Office","address1":"12 East 4th Avenue","address2":"2nd Floor/County Administrative Bldg.","city":"Rome","zip":"30161"},{"name":"Rome Civic Center","address1":"400 Civic Center Dr","city":"Rome","zip":"30161"}]},{"name":"Forsyth","id":"58","locations":[{"name":"Cumming City Hall","address1":"100 Main Street","city":"Cumming","zip":"30040"},{"name":"Hampton Park Library","address1":"5345 Settingdown Rd","city":"Cumming","zip":"30041"},{"name":"Midway Park Community Building","address1":"5100 Post Road","city":"Cumming","zip":"30040"},{"name":"Sharon Springs Park Community Building","address1":"1950 Sharon Road","city":"Cumming","zip":"30041"},{"name":"Voter Registrations & Elections Office","address1":"Forsyth County Administration Bldg","address2":"110 East Main Street","city":"Cumming","zip":"30040"}]},{"name":"Franklin","id":"59","locations":[{"name":"Elections & Registration Office","address1":"211 Athens Street","city":"Carnesville","zip":"30521"}]},{"name":"Fulton","id":"60","locations":[{"name":"Adamsville Recreation Center","address1":"3201 Martin Luther King, Jr. Dr,, SW","city":"Atlanta","zip":"30311"},{"name":"Adamsville-Collier Heights Branch Library","address1":"3424 Martin Luther King, Dr,","city":"Atlanta","zip":"30331"},{"name":"Alpharetta Library","address1":"10 Park Plaza","city":"Alpharetta","zip":"30009"},{"name":"Buckhead Library","address1":"269 Buckhead Avenue NE","city":"Atlanta","zip":"30305"},{"name":"Chastain Park Gymnasium","address1":"140 West Wieuca, Road NW","city":"Atlanta","zip":"30342"},{"name":"College Park Historical Building","address1":"3675 Auditorium Way","city":"College Park","zip":"30337"},{"name":"East Point Library","address1":"2757 Main Street","city":"East Point","zip":"30344"},{"name":"East Roswell Library","address1":"2301 Holcomb Bridge Road","city":"Roswell","zip":"30076"},{"name":"Fairburn Library","address1":"60 Valley View Drive","city":"Fairburn","zip":"30075"},{"name":"Fulton County Government Center","address1":"130 Peachtree Street SW","city":"Atlanta","zip":"30303"},{"name":"Georgia Hills Neighborhood Facility","address1":"250 Georgia Avenue SE","city":"Atlanta","zip":"30312"},{"name":"Johns Creek Environmental Campus","address1":"8100 Holcomb Bridge Road","city":"Alpharetta","zip":"30022"},{"name":"Milton Library","address1":"855 Mayfield Road","city":"Milton","zip":"30009"},{"name":"North Fulton Service Center","address1":"7741 Roswell Road, Suite 232","city":"Sandy Springs","zip":"30350"},{"name":"Northeast/Spruill Oaks Library","address1":"9560 Spruill Road","city":"Johns Creek","zip":"30022"},{"name":"Northside Library","address1":"3295 Northside Parkway, NW","city":"Atlanta","zip":"30327"},{"name":"Northwest Branch at Scotts Crossing Library","address1":"2489 Perry Boulevard NW","city":"Atlanta","zip":"30318"},{"name":"Palmetto Library","address1":"9111 Cascade Palmetto Hwy","city":"Atlanta","zip":"30268"},{"name":"Robert F. Fulton Ocee Library","address1":"5090 Abbotts Bridge Road","city":"Alpharetta","zip":"30075"},{"name":"Roswell Branch Library","address1":"115 Norcross Street","city":"Roswell ","zip":"30075"},{"name":"Sandy Springs Library","address1":"395 Mount Vernon HWY, NE","city":"Sandy Springs","zip":"30328"},{"name":"South Fulton Service Center","address1":"5600 Stonewall Tell Road Room 108","city":"College Park","zip":"30349"},{"name":"Southwest Arts Center","address1":"915 New Hope Road, SW","city":"Atlanta","zip":"30331"},{"name":"Welcome All Recreation Center","address1":"4255 Will Lee Road","city":"College Park","zip":"30349"}]},{"name":"Gilmer","id":"61","locations":[{"name":"Gilmer County Registrar's Office","address1":"1 Broad St., Suite 107","city":"Ellijay","zip":"30540"}]},{"name":"Glascock","id":"62","locations":[{"name":"Glascock County Registrars Office","address1":"676 West Main Street","city":"Gibson","zip":"30810"}]},{"name":"Glynn","id":"63","locations":[{"name":"Board of Elections","address1":"1815 Gloucester Street","address2":"Second Floor Office Park Building","city":"Brunswick","zip":"31520"},{"name":"St. Simons Fire Station #2","address1":"1929 Demere Road","city":"St. Simons Island","zip":"31522"}]},{"name":"Gordon","id":"64","locations":[{"name":"Gordon County Elections and Voter Registration Off","address1":"101 S. Piedmont Street","city":"Calhoun","zip":"30701"}]},{"name":"Grady","id":"65","locations":[{"name":"Grady County Registrar's Office","address1":"24  3rd Ave NE","city":"Cairo","zip":"39828"}]},{"name":"Greene","id":"66","locations":[{"name":"Greene County Annex","address1":"1180 C. Weldon Smith Drive","city":"Greensboro","zip":"30642"}]},{"name":"Gwinnett","id":"67","locations":[{"name":"Voter Registration and Elections Main Office","address1":"455 Grayson Highway, Suite 200","city":"Lawrenceville","zip":"30046"},{"name":"Bogan Park Community Recreation Center","address1":"2723 North Bogan Road","city":"Buford","zip":"30518"},{"name":"Dacula Activity Building","address1":"2735 Old Auburn Road","city":"Dacula","zip":"30019"},{"name":"George Pierce Park Community Recreation Center","address1":"55 Buford Highway","city":"Suwanee","zip":"30024"},{"name":"Lenora Park Activity Room","address1":"* Not the Gym","address2":"4515 Lenora Church Road","city":"Snellville","zip":"30078"},{"name":"Lucky Shoals Park Community Recreation Center","address1":"4651 Britt Road","city":"Norcross","zip":"30039"},{"name":"Mountain Park Activity Building","address1":"*Adjacent to the Aquatic Ctr","address2":"1063 Rockbridge Road","city":"Stone Mountain","zip":"30087"},{"name":"Shorty Howell Park Activity Building","address1":"2750 Pleasant Hill Road","city":"Duluth","zip":"30096"}]},{"name":"Habersham","id":"68","locations":[{"name":"Office of Elections & Registration","address1":"555 Monroe Street","address2":"Basement","city":"Clarkesville","zip":"30523"},{"name":"First Baptist Church of Cornelia","address1":"325 Oak Street","city":"Cornelia","zip":"30531"},{"name":"Ruby Fulbright Aquatic Center","address1":"120 Paul Franklin Road","city":"Clarkesville","zip":"30523"}]},{"name":"Hall","id":"69","locations":[{"name":"Hall County Government Center","address1":"2875 Browns Bridge Road","city":"Gainesville","zip":"30501"},{"name":"North Hall Community Center","address1":"4175 Nopone Road","city":"Gainesville","zip":"30506"},{"name":"Spout Springs Library","address1":"6488 Spout Springs Road ","city":"Flowery Branch","zip":"30542"}]},{"name":"Hancock","id":"70","locations":[{"name":"Board of Elections Office","address1":"Temporary Courthouse","address2":"10571 Highway 15 North, Room 106","city":"Sparta","zip":"31087"}]},{"name":"Haralson","id":"71","locations":[{"name":"Haralson County Courthouse","address1":"4485 Highway 120 ","city":"Buchanan","zip":"30113"}]},{"name":"Harris","id":"72","locations":[{"name":"Courthouse Annex","address1":"104 North College Street","city":"Hamilton","zip":""}]},{"name":"Hart","id":"73","locations":[{"name":"Hart County Board of Elections and Registration","address1":"182 Cade Street","address2":"Suite C","city":"Hartwell","zip":"30643"}]},{"name":"Heard","id":"74","locations":[{"name":"Heard County Courthouse","address1":"215 East Court Square","address2":"Room #14","city":"Franklin","zip":"30217"}]},{"name":"Henry","id":"75","locations":[{"name":"Elections and Registration","address1":"40 Atlanta St","city":"McDonough","zip":"30253"},{"name":"Merle Manders Conference Center","address1":"111 Davis Rd","city":"Stockbridge","zip":"30281"},{"name":"Fairview Library","address1":"28 Austin Rd","city":"Stockbridge","zip":"30281"},{"name":"Fortson Library","address1":"61 McDonough St","city":"Hampton","zip":"30228"},{"name":"Locust Grove Library","address1":"115 LG Griffin Rd","city":"Locust Grove","zip":"30248"}]},{"name":"Houston","id":"76","locations":[{"name":"Board of Elections","address1":"801 Main Street, ","city":"Perry","zip":"31069"},{"name":"Central Georgia Technical College","address1":"80 Cohen Walker Dr.","city":"Warner Robins","zip":"31088"},{"name":"Houston Health Pavilion Conference Center","address1":"233 N. Houston Rd.","address2":"BACK OF BUILDING","city":"Warner Robins","zip":"31093"}]},{"name":"Irwin","id":"77","locations":[{"name":"Irwin County Annex","address1":"207 South Irwin Ave.","city":"Ocilla","zip":"31774"}]},{"name":"Jackson","id":"78","locations":[{"name":"Administration Building","address1":"67 Athens Street","city":"Jefferson","zip":"30549"},{"name":"Commerce Parks & Rec","address1":"204 Carson Street","city":"Commerce","zip":"30529"},{"name":"Police Court Building","address1":"5040 Highway 53","city":"Braselton ","zip":"30517"}]},{"name":"Jasper","id":"79","locations":[{"name":"Registrar's Office","address1":"126 West Greene St","address2":"Suite 3","city":"Monticello","zip":"31064"}]},{"name":"Jeff Davis","id":"80","locations":[{"name":"Jeff Davis County Courthouse","address1":"14 Jeff Davis Street, Room 106","city":"Hazelhurst","zip":""}]},{"name":"Jefferson","id":"81","locations":[{"name":"Jefferson County Elections Office","address1":"415 Green Street","city":"Louisville","zip":"30434"}]},{"name":"Jenkins","id":"82","locations":[{"name":"Jenkins County Courthouse","address1":"611 East Winthrop Avenue","city":"Millen","zip":""}]},{"name":"Johnson","id":"83","locations":[{"name":"","city":"Wrightsville","zip":"31096"}]},{"name":"Jones","id":"84","locations":[{"name":"Jones County Government Center","address1":"166 Industrial Boulevard, Suite 102","city":"Gray","zip":"31032"}]},{"name":"Lamar","id":"85","locations":[{"name":"Registrar's Office","address1":"408 Thomaston Street","city":"Barnesville","zip":"30204"}]},{"name":"Lanier","id":"86","locations":[{"name":"Registrar's Office","address1":"56 W Main Street, Suite 8","city":"Lakeland","zip":"31635"}]},{"name":"Laurens","id":"87","locations":[{"name":"Courthouse Annex Building","address1":"117 East Jackson Street","address2":"Suite A ","city":"Dublin","zip":"31021"}]},{"name":"Lee","id":"88","locations":[{"name":"Board of Elections and Registraion Office ","address1":"100 Starksville Ave., North, Suite C","city":"Leesburg","zip":"31763"}]},{"name":"Liberty","id":"89","locations":[{"name":"","address1":"100 N. Main St. Suite 1600","city":"Hinesville","zip":"31313"},{"name":"liberty County Complex","address1":"9397 E. Oglethorpe Hwy","city":"Midway","zip":"31320"}]},{"name":"Lincoln","id":"90","locations":[{"name":"The Lincoln Center","address1":"160 May Avenue","city":"Lincolnton","zip":""}]},{"name":"Long","id":"91","locations":[{"name":"Long County Courthouse","address1":"459  S Mcdonald St","city":"Ludowici","zip":"31316"}]},{"name":"Lowndes","id":"92","locations":[{"name":"","city":"Valdosta","zip":"31602"}]},{"name":"Lumpkin","id":"93","locations":[{"name":"Lumpkin County Elections Office","address1":"56 Short Street","city":"Dahlonega","zip":"30533"}]},{"name":"Macon","id":"94","locations":[{"name":"Macon County Annex Building","address1":"100 Macon St","city":"Oglethorpe","zip":"31068"}]},{"name":"Madison","id":"95","locations":[{"name":"Board of Elections' Office","address1":"91 Albany Avenue","city":"Danielsville","zip":""}]},{"name":"Marion","id":"96","locations":[{"name":"Board of Elections & Registration","address1":"100 E Burkhalter Av","city":"Buena Vista","zip":"31803"}]},{"name":"McDuffie","id":"97","locations":[{"name":"Board of Elections Office","address1":"Old Historic Courthouse","address2":"337 Main Street, Suite 101","city":"Thomson","zip":"30824"}]},{"name":"McIntosh","id":"98","locations":[{"name":"","city":"Darien","zip":""}]},{"name":"Meriwether","id":"99","locations":[{"name":"","city":"Greenville","zip":""}]},{"name":"Miller","id":"100","locations":[{"name":"Miller County Courthouse","address1":"Registrar's Office, Room 113","address2":"155 S. First Street","city":"Colquitt","zip":"39837"}]},{"name":"Mitchell","id":"101","locations":[{"name":"Mitchell County Courthouse","address1":"11 W. Broad Street, Room 101","city":"Camilla","zip":"31730"}]},{"name":"Monroe","id":"102","locations":[{"name":"Monroe County Board of Registration","address1":"38 West Main Street","address2":"P.O. Box 1245","city":"Forsyth","zip":"31029"}]},{"name":"Montgomery","id":"103","locations":[{"name":"Montgomery County Courthouse","address1":"400 S. Railroad Ave","city":"Mount Vernon","zip":"30445"}]},{"name":"Morgan","id":"104","locations":[{"name":"","city":"Madison","zip":""}]},{"name":"Murray","id":"105","locations":[{"name":"Courthouse Annex","address1":"121 N 4th Ave","city":"Chatsworth","zip":"30705"}]},{"name":"Muscogee","id":"106","locations":[{"name":"City Services Center","address1":"3111 Citizens Way","city":"Columbus","zip":"31906"}]},{"name":"Newton","id":"107","locations":[{"name":"Newton County Administration Building","address1":"1113 Usher Street","city":"Covington","zip":"30014"},{"name":"Porter Memorial Branch Library","address1":"6191 Highway 212","city":"Covington","zip":"30016"}]},{"name":"Oconee","id":"108","locations":[{"name":"Oconee County Elections Office","address1":"10 Court Street ","city":"Watkinsville","zip":"30677"},{"name":"Oconee County Civic Center","address1":"2661 Hog Mountain Road","city":"Watkinsville","zip":"30677"}]},{"name":"Oglethorpe","id":"109","locations":[{"name":"Multi-Purpose Building (Lower Level)","address1":"109 East Boggs Street","city":"Lexington","zip":"30648"}]},{"name":"Paulding","id":"110","locations":[{"name":"Board of Elections and Registration","address1":"Watson Government Complex, First Floor","address2":"240 Constitution Blvd.","city":"Dallas","zip":"30132"},{"name":"Burnt Hickory Park","address1":"8650 Cartersville Hwy","city":"Dallas","zip":"30132"},{"name":"Mt. Tabor Park","address1":"1550 East Paulding Dr","city":"Dallas","zip":"30157"},{"name":"Poplar Springs Baptist Church","address1":"2056 Hiram Douglasville Hwy","city":"Hiram","zip":"30141"}]},{"name":"Peach","id":"111","locations":[{"name":"Byron Municipal Complex","address1":"401 Main St","city":"Byron","zip":"31008"},{"name":"Peach County Courthouse Annex","address1":"205 West Church Street, Suite 102","city":"Fort Valley","zip":""}]},{"name":"Pickens","id":"112","locations":[{"name":"","city":"Jasper","zip":"30143"}]},{"name":"Pierce","id":"113","locations":[{"name":"","city":"Blackshear","zip":"31516"}]},{"name":"Pike","id":"114","locations":[{"name":"Pike County Courthouse","address1":"16001 Barnesville Street","city":"Zebulon","zip":"30295"}]},{"name":"Polk","id":"115","locations":[{"name":"Board of Elections and Registration","address1":"144 West Avenue, Suite D","city":"Cedartown","zip":"30125"},{"name":"Nathan Dean Comm. Center","address1":"436 Hogue Ave","city":"Rockmart","zip":"30153"}]},{"name":"Pulaski","id":"116","locations":[{"name":"Courthouse Annex","address1":"45 S. Lumpkin Street","city":"Hawkinsville","zip":""}]},{"name":"Putnam","id":"117","locations":[{"name":"Putnam County Board of Elections & Registration","address1":"100 South Jefferson Avenue, Suite 217","city":"Eatonton","zip":"31024"},{"name":"Putnam County Administration Building","address1":"117 Putnam Drive","city":"Eatonton","zip":"31024"}]},{"name":"Quitman","id":"118","locations":[{"name":"Quitman County Court House","address1":"111 main St.","city":"Georgetown","zip":"39854"}]},{"name":"Rabun","id":"119","locations":[{"name":"Rabun County Elections and Registration Office","address1":"19 Jo Dotson Circle, Suite 201","city":"Clayton","zip":"30525"}]},{"name":"Randolph","id":"120","locations":[{"name":"Randolph Elections and REgistration","address1":"Randolph County Government Center","address2":"93 Front Street","city":"Cuthbert","zip":"39840"}]},{"name":"Richmond","id":"121","locations":[{"name":"Board of Elections","address1":"535 Telfair Street","city":"Augusta","zip":"30901"},{"name":"Diamond Lakes Regional Park","address1":"4335 Windsor Spring Road","city":"Hephzibah","zip":"30815"},{"name":"Henry H. Brigham Community Center","address1":"2463 Golden Camp Road","city":"Augusta","zip":"30906"},{"name":"Warren Road Community Center","address1":"300 Warren Road","city":"Augusta","zip":"30907"}]},{"name":"Rockdale","id":"122","locations":[{"name":"","city":"Conyers","zip":"30094"}]},{"name":"Schley","id":"123","locations":[{"name":"SchleyCounty Courthouse Annex","address1":"Registrar's Office","address2":"47 North Pecan St","city":"Ellaville","zip":"31806"}]},{"name":"Screven","id":"124","locations":[{"name":"Screven County Courthouse","address1":"216 Mims Road, Room 114 ","city":"Sylvania","zip":"30467"}]},{"name":"Seminole","id":"125","locations":[{"name":"Seminole County Courthouse","address1":"Probate and Magistrate Court Office","address2":"200 South Knox Avenue","city":"Donalsonville","zip":"39845"}]},{"name":"Spalding","id":"126","locations":[{"name":"Memorial Drive Plaza","address1":"825 Memorial Drive","city":"Griffin","zip":"30224"}]},{"name":"Stephens","id":"127","locations":[{"name":"Stephens County Courthouse Annex","address1":"40 East Taguloo, Suite 250","city":"Toccoa","zip":"30577"}]},{"name":"Stewart","id":"128","locations":[{"name":"","city":"Lumpkin","zip":"31815"}]},{"name":"Sumter","id":"129","locations":[{"name":"Sumter County Courthouse","address1":"500 West Lamar Street Suite 110","address2":"Voter Registration Office","city":"Americus","zip":"31709"}]},{"name":"Talbot","id":"130","locations":[{"name":"Talbot County  Board of Elections and Reg.","address1":"141 N. Jefferson Av","city":"Talbotton","zip":"31827"}]},{"name":"Taliaferro","id":"131","locations":[{"name":"Taliaferro County Courthouse","address1":"113 Monument Street","city":"Crawfordville","zip":""}]},{"name":"Tattnall","id":"132","locations":[{"name":"Tattnall County Board of Elections and Registration","address1":"114 West Brazell Street","city":"Reidsville","zip":""},{"name":"Old Collins Gym","address1":"509 N.W. Williams St.","city":"Collins","zip":"30421"},{"name":"Southeastern Technical School","address1":"211 S Tillman Street","city":"Glennville","zip":"30427"}]},{"name":"Taylor","id":"133","locations":[{"name":"Taylor County Voter Registrar","address1":"1B Ivy Street","city":"Butler","zip":"31006"}]},{"name":"Telfair","id":"134","locations":[{"name":"","address1":"91 Telfair Avenue","city":"McRae","zip":"31055"}]},{"name":"Terrell","id":"135","locations":[{"name":"Government Building","address1":"Board of Elections and Registration","address2":"955 Forrester Drive SE","city":"Dawson","zip":"39842"}]},{"name":"Thomas","id":"136","locations":[{"name":"Board of Elections","address1":"325 N. Madison St.","city":"Thomasville","zip":"31792"}]},{"name":"Tift","id":"137","locations":[{"name":"Board of Elections and Registration","address1":"222 Chestnut Avenue","city":"Tifton","zip":""}]},{"name":"Toombs","id":"138","locations":[{"name":"","city":"Lyons","zip":"30436"}]},{"name":"Towns","id":"139","locations":[{"name":"Towns County Registrars Office","address1":"Old Rock Jail","address2":"48 River Street, Suite 30","city":"Hiawassee","zip":"30546"}]},{"name":"Treutlen","id":"140","locations":[{"name":"Annex Building ","address1":"650 Second Street South","city":"Soperton","zip":"30457"}]},{"name":"Turner","id":"142","locations":[{"name":"Turner Co. Bd. of Elections & Registration","address1":"1807 US Highway 41 South","city":"Sycamore","zip":"31790"}]},{"name":"Twiggs","id":"143","locations":[{"name":"County Courthouse","address1":"425 Railroad Street N","city":"Jeffersonville","zip":""}]},{"name":"Union","id":"144","locations":[{"name":"Union County Courthouse","address1":"65 Courthouse St","city":"Blairsville","zip":"30512"}]},{"name":"Upson","id":"145","locations":[{"name":"The CivicCenter","address1":"101 Civic Center Dr.","city":"Thomaston","zip":"30286"}]},{"name":"Walker","id":"146","locations":[{"name":"Courthouse","address1":"103 S. Duke St","city":"LaFayette","zip":"30728"},{"name":"Chickamauga","address1":"1817 Lee Clarkson Rd","city":"Chickamauga","zip":"30707"},{"name":"Fairyland","address1":"1214 Lula Lake Rd","city":"Lookout Mountain","zip":"30750"},{"name":"Rock Spring","address1":"265 Bicentennial Trail","address2":"Building 500 Student Center","city":"Rock Spring","zip":"30739"},{"name":"Rossville","address1":"400 McFarland Ave","city":"Rossville","zip":"30741"}]},{"name":"Walton","id":"147","locations":[{"name":"Walton County Elections Office","address1":"303 S. Hammond Drive","city":"Monroe","zip":"30655"}]},{"name":"Ware","id":"148","locations":[{"name":"","city":"WAYROSS","zip":"31501"}]},{"name":"Warren","id":"149","locations":[{"name":"Community Service Building","address1":"48 Warren Street","city":"Warrenton","zip":"30828"}]},{"name":"Washington","id":"150","locations":[{"name":"Washington County Courthouse","address1":"Registrar's Office","address2":"132 W. Haynes Street","city":"Sandersville","zip":"31082"}]},{"name":"Wayne","id":"151","locations":[{"name":"Wayne County Courthouse","address1":"Registrar's Office","address2":"174 North Brunswick Street","city":"Jesup","zip":"31546"}]},{"name":"Webster","id":"152","locations":[{"name":"Webster County Board of Elections and Registration","address1":"6622 Cass Street","city":"Preston","zip":"31824"}]},{"name":"Wheeler","id":"153","locations":[{"name":"","address1":"16 W Forest Ave","city":"Alamo","zip":"30411"}]},{"name":"White","id":"154","locations":[{"name":"","address1":"1241 Helen Hwy ","city":"Cleveland","zip":"30528"}]},{"name":"Whitfield","id":"155","locations":[{"name":"Registrar's Office","address1":"205 N. Selvidge Street, Suite K","city":"Dalton","zip":"30720"}]},{"name":"Wilcox","id":"156","locations":[{"name":"Wilcox County Board of Elections Office","address1":"377 College Street","city":"Abbeville","zip":"31001"}]},{"name":"Wilkes","id":"157","locations":[{"name":"Wilkes County Courthouse","address1":"23 Court Street, Room 113","city":"Washington","zip":"30673-1570"}]},{"name":"Wilkinson","id":"158","locations":[{"name":"Wilkinson County Courthouse","address1":"100 Bacon Street","address2":"Room 133","city":"Irwinton","zip":"31042"}]},{"name":"Worth","id":"159","locations":[{"name":"Worth County Courthouse","address1":"Voter Registration & Board of Elections","address2":"201 North Main Street, Room 10","city":"Sylvester","zip":"31791"}]}]